NORAD_CAT_ID,OBJECT_NAME,OBJECT_TYPE,EPOCH,MEAN_MOTION,ECCENTRICITY,INCLINATION,RA_OF_ASC_NODE,ARG_OF_PERICENTER,MEAN_ANOMALY,BSTAR,MEAN_MOTION_DOT,MEAN_MOTION_DDOT,TLE_LINE0,TLE_LINE1,TLE_LINE2,SEMIMAJOR_AXIS,PERIOD,APOGEE,PERIGEE,DECAYED
53137.0,STARLINK-4145,PAYLOAD,2024-03-29 18:37:38,15.08849178,0.0001485,53.2151,121.0453,90.6733,269.4429,0.00032728,4.926e-05,0.0,0 STARLINK-4145,1 53137U 22083F   24089.77613808  .00004926  00000-0  32728-3 0  9993,2 53137  53.2151 121.0453 0001485  90.6733 269.4429 15.08849178 94044,6917.852,95.437,540.745,538.69,0.0
53137.0,STARLINK-4145,PAYLOAD,2024-03-30 00:59:10,15.08844951,0.0001598,53.2161,119.8596,97.693,262.4244,0.00020971,3.052e-05,0.0,0 STARLINK-4145,1 53137U 22083F   24090.04109941  .00003052  00000-0  20971-3 0  9999,2 53137  53.2161 119.8596 0001598  97.6930 262.4244 15.08844951 94715,6917.865,95.437,540.836,538.625,0.0
53137.0,STARLINK-4145,PAYLOAD,2024-03-30 08:56:06,15.08844327,0.000161,53.2162,118.3729,98.4397,261.6778,0.00015733,2.217e-05,0.0,0 STARLINK-4145,1 53137U 22083F   24090.37229879  .00002217  00000-0  15733-3 0  9990,2 53137  53.2162 118.3729 0001610  98.4397 261.6778 15.08844327 94135,6917.867,95.437,540.846,538.618,0.0
53137.0,STARLINK-4145,PAYLOAD,2024-03-30 18:28:25,15.08840095,0.0001594,53.2159,116.5886,97.9759,262.1414,2.5183e-05,1.13e-06,0.0,0 STARLINK-4145,1 53137U 22083F   24090.76974012  .00000113  00000-0  25183-4 0  9993,2 53137  53.2159 116.5886 0001594  97.9759 262.1414 15.08840095 94829,6917.88,95.438,540.848,538.642,0.0
53137.0,STARLINK-4145,PAYLOAD,2024-03-31 08:46:53,15.0884235,0.0001576,53.2167,113.9116,101.1317,258.9852,6.881e-05,8.07e-06,0.0,0 STARLINK-4145,1 53137U 22083F   24091.36590139  .00000807  00000-0  68810-4 0  9998,2 53137  53.2167 113.9116 0001576 101.1317 258.9852 15.08842350 94288,6917.873,95.437,540.828,538.648,0.0
53137.0,STARLINK-4145,PAYLOAD,2024-03-31 18:19:12,15.08840684,0.0001513,53.2165,112.1272,95.6252,264.4913,9.572e-06,-1.36e-06,0.0,0 STARLINK-4145,1 53137U 22083F   24091.76334295 -.00000136  00000-0  95720-5 0  9998,2 53137  53.2165 112.1272 0001513  95.6252 264.4913 15.08840684 94341,6917.878,95.438,540.79,538.697,0.0
53137.0,STARLINK-4145,PAYLOAD,2024-04-01 10:13:05,15.08830279,0.0001576,53.2165,109.1528,96.2808,263.8364,1.1551e-05,-1.04e-06,0.0,0 STARLINK-4145,1 53137U 22083F   24092.42575293 -.00000104  00000-0  11551-4 0  9991,2 53137  53.2165 109.1528 0001576  96.2808 263.8364 15.08830279 95077,6917.91,95.438,540.865,538.685,0.0
53137.0,STARLINK-4145,PAYLOAD,2024-04-01 18:10:00,15.08836875,0.0001585,53.217,107.6662,87.9979,272.1194,7.5381e-05,9.12e-06,0.0,0 STARLINK-4145,1 53137U 22083F   24092.75694784  .00000912  00000-0  75381-4 0  9991,2 53137  53.2170 107.6662 0001585  87.9979 272.1194 15.08836875 95129,6917.89,95.438,540.851,538.658,0.0
53137.0,STARLINK-4145,PAYLOAD,2024-04-02 10:03:50,15.08848888,0.0001519,53.2167,104.692,87.0156,273.101,0.00015242,2.139e-05,0.0,0 STARLINK-4145,1 53137U 22083F   24093.41933808  .00002139  00000-0  15242-3 0  9990,2 53137  53.2167 104.6920 0001519  87.0156 273.1010 15.08848888 95220,6917.853,95.437,540.769,538.667,0.0
53137.0,STARLINK-4145,PAYLOAD,2024-04-02 18:00:46,15.08843776,0.0001367,53.2156,103.2035,88.3706,271.7443,5.093e-05,5.23e-06,0.0,0 STARLINK-4145,1 53137U 22083F   24093.75054268  .00000523  00000-0  50930-4 0  9990,2 53137  53.2156 103.2035 0001367  88.3706 271.7443 15.08843776 95276,6917.869,95.437,540.68,538.788,0.0
53137.0,STARLINK-4145,PAYLOAD,2024-04-03 06:43:52,15.08837042,0.0001417,53.2156,100.8244,87.9974,272.1181,0.00014998,2.1e-05,0.0,0 STARLINK-4145,1 53137U 22083F   24094.28046621  .00002100  00000-0  14998-3 0  9999,2 53137  53.2156 100.8244 0001417  87.9974 272.1181 15.08837042 95351,6917.889,95.438,540.735,538.774,0.0
53137.0,STARLINK-4145,PAYLOAD,2024-04-03 17:51:34,15.08842444,0.0001417,53.2156,98.7427,87.8606,272.2549,8.9701e-05,1.14e-05,0.0,0 STARLINK-4145,1 53137U 22083F   24094.74414384  .00001140  00000-0  89701-4 0  9993,2 53137  53.2156  98.7427 0001417  87.8606 272.2549 15.08842444 94798,6917.873,95.437,540.718,538.758,0.0
53137.0,STARLINK-4145,PAYLOAD,2024-04-04 06:34:38,15.08844364,0.0001453,53.2161,96.3633,89.7925,270.3233,1.855e-05,7e-08,0.0,0 STARLINK-4145,1 53137U 22083F   24095.27406233  .00000007  00000-0  18550-4 0  9991,2 53137  53.2161  96.3633 0001453  89.7925 270.3233 15.08844364 94873,6917.867,95.437,540.737,538.727,0.0
53137.0,STARLINK-4145,PAYLOAD,2024-04-05 03:14:39,15.08839982,0.000145,53.2165,92.4972,90.1326,269.9833,2.9885e-05,1.88e-06,0.0,0 STARLINK-4145,1 53137U 22083F   24096.13518332  .00000188  00000-0  29885-4 0  9994,2 53137  53.2165  92.4972 0001450  90.1326 269.9833 15.08839982 95633,6917.88,95.438,540.749,538.742,0.0
53137.0,STARLINK-4145,PAYLOAD,2024-04-05 06:25:26,15.08840857,0.0001481,53.2168,91.903,90.9309,269.1853,4.3119e-05,3.98e-06,0.0,0 STARLINK-4145,1 53137U 22083F   24096.26766229  .00000398  00000-0  43119-4 0  9997,2 53137  53.2168  91.9030 0001481  90.9309 269.1853 15.08840857 95028,6917.878,95.438,540.767,538.718,0.0
53137.0,STARLINK-4145,PAYLOAD,2024-04-06 06:16:13,15.08838506,0.0001428,53.2174,87.4431,88.3308,271.7847,2.2151e-05,6.5e-07,0.0,0 STARLINK-4145,1 53137U 22083F   24097.26126482  .00000065  00000-0  22151-4 0  9993,2 53137  53.2174  87.4431 0001428  88.3308 271.7847 15.08838506 95807,6917.885,95.438,540.738,538.762,0.0
53137.0,STARLINK-4145,PAYLOAD,2024-04-06 15:48:32,15.08833204,0.0001432,53.2174,85.6592,89.5064,270.6092,7.4519e-05,8.98e-06,0.0,0 STARLINK-4145,1 53137U 22083F   24097.65870764  .00000898  00000-0  74519-4 0  9994,2 53137  53.2174  85.6592 0001432  89.5064 270.6092 15.08833204 95239,6917.901,95.438,540.757,538.776,0.0
53137.0,STARLINK-4145,PAYLOAD,2024-04-07 04:31:37,15.08832386,0.0001546,53.2181,83.2821,92.4321,267.6848,-1.0156e-05,-4.5e-06,0.0,0 STARLINK-4145,1 53137U 22083F   24098.18863257 -.00000450  00000-0 -10156-4 0  9995,2 53137  53.2181  83.2821 0001546  92.4321 267.6848 15.08832386 95315,6917.904,95.438,540.838,538.699,0.0
53137.0,STARLINK-4145,PAYLOAD,2024-04-07 15:39:19,15.08835403,0.0001532,53.2181,81.2016,96.9773,263.1393,-1.5037e-05,-5.27e-06,0.0,0 STARLINK-4145,1 53137U 22083F   24098.65231242 -.00000527  00000-0 -15037-4 0  9998,2 53137  53.2181  81.2016 0001532  96.9773 263.1393 15.08835403 95380,6917.894,95.438,540.819,538.7,0.0
53137.0,STARLINK-4145,PAYLOAD,2024-04-08 04:22:26,15.08819559,0.0001304,53.2176,78.82,96.6768,263.4373,-9.526e-05,-1.803e-05,0.0,0 STARLINK-4145,1 53137U 22083F   24099.18224933 -.00001803  00000-0 -95260-4 0  9990,2 53137  53.2176  78.8200 0001304  96.6768 263.4373 15.08819559 96093,6917.943,95.439,540.71,538.906,0.0
53137.0,STARLINK-4145,PAYLOAD,2024-04-08 07:33:12,15.08826858,0.0001582,53.2181,78.2295,104.9925,255.1242,-0.00029065,-4.909e-05,0.0,0 STARLINK-4145,1 53137U 22083F   24099.31473264 -.00004909  00000-0 -29065-3 0  9997,2 53137  53.2181  78.2295 0001582 104.9925 255.1242 15.08826858 95488,6917.921,95.438,540.88,538.691,0.0
53137.0,STARLINK-4145,PAYLOAD,2024-04-08 15:30:08,15.08822825,0.0001256,53.2189,76.7431,99.7648,260.3486,-1.361e-05,-5.04e-06,0.0,0 STARLINK-4145,1 53137U 22083F   24099.64593106 -.00000504  00000-0 -13610-4 0  9998,2 53137  53.2189  76.7431 0001256  99.7648 260.3486 15.08822825 95536,6917.933,95.439,540.667,538.929,0.0
53137.0,STARLINK-4145,PAYLOAD,2024-04-09 04:13:12,15.08838123,0.0001123,53.216,74.3587,80.0332,280.0787,0.00010742,1.422e-05,0.0,0 STARLINK-4145,1 53137U 22083F   24100.17584085  .00001422  00000-0  10742-3 0  9995,2 53137  53.2160  74.3587 0001123  80.0332 280.0787 15.08838123 96247,6917.886,95.438,540.528,538.974,0.0
53137.0,STARLINK-4145,PAYLOAD,2024-04-09 07:23:58,15.08841406,0.0001302,53.2173,73.7646,83.0093,277.1047,0.00014246,1.98e-05,0.0,0 STARLINK-4145,1 53137U 22083F   24100.30831890  .00001980  00000-0  14246-3 0  9991,2 53137  53.2173  73.7646 0001302  83.0093 277.1047 15.08841406 95632,6917.876,95.437,540.642,538.84,0.0
53137.0,STARLINK-4145,PAYLOAD,2024-04-09 15:20:54,15.08846278,0.0001286,53.2174,72.2783,83.597,276.5169,0.00016672,2.367e-05,0.0,0 STARLINK-4145,1 53137U 22083F   24100.63951552  .00002367  00000-0  16672-3 0  9990,2 53137  53.2174  72.2783 0001286  83.5970 276.5169 15.08846278 96315,6917.861,95.437,540.616,538.837,0.0
53137.0,STARLINK-4145,PAYLOAD,2024-04-10 07:14:44,15.08851252,0.0001391,53.2176,69.3041,72.7151,287.3993,0.00049205,7.554e-05,0.0,0 STARLINK-4145,1 53137U 22083F   24101.30190920  .00007554  00000-0  49205-3 0  9990,2 53137  53.2176  69.3041 0001391  72.7151 287.3993 15.08851252 95782,6917.846,95.437,540.673,538.749,0.0
53137.0,STARLINK-4145,PAYLOAD,2024-04-10 15:11:41,15.08848024,0.0001459,53.2178,67.8167,84.6633,275.4526,0.00032498,4.889e-05,0.0,0 STARLINK-4145,1 53137U 22083F   24101.63311747  .00004889  00000-0  32498-3 0  9992,2 53137  53.2178  67.8167 0001459  84.6633 275.4526 15.08848024 96467,6917.856,95.437,540.73,538.712,0.0
53137.0,STARLINK-4145,PAYLOAD,2024-04-11 03:54:46,15.0884699,0.0001466,53.2173,65.4379,90.2708,269.8453,3.9254e-05,3.37e-06,0.0,0 STARLINK-4145,1 53137U 22083F   24102.16303549  .00000337  00000-0  39254-4 0  9994,2 53137  53.2173  65.4379 0001466  90.2708 269.8453 15.08846990 95910,6917.859,95.437,540.738,538.71,0.0
53137.0,STARLINK-4145,PAYLOAD,2024-04-11 15:02:28,15.08843861,0.0001396,53.2166,63.3548,95.3376,264.7775,-5.9136e-05,-1.229e-05,0.0,0 STARLINK-4145,1 53137U 22083F   24102.62671480 -.00001229  00000-0 -59136-4 0  9991,2 53137  53.2166  63.3548 0001396  95.3376 264.7775 15.08843861 96619,6917.869,95.437,540.699,538.768,0.0
53137.0,STARLINK-4145,PAYLOAD,2024-04-12 06:56:19,15.08852396,0.0001545,53.2175,60.3815,113.368,246.7475,-0.00015586,-2.769e-05,0.0,0 STARLINK-4145,1 53137U 22083F   24103.28911264 -.00002769  00000-0 -15586-3 0  9991,2 53137  53.2175  60.3815 0001545 113.3680 246.7475 15.08852396 96089,6917.842,95.437,540.776,538.639,0.0
